CCSDS_OMM_VERS = 2.0
CREATION_DATE  = 
ORIGINATOR     = 

OBJECT_NAME    = STARLINK-36332
OBJECT_ID      = 2026-034N
CENTER_NAME    = EARTH
REF_FRAME      = TEME
TIME_SYSTEM    = UTC
MEAN_ELEMENT_THEORY = SGP/SGP4

EPOCH          = 2026-03-02T22:00:01.999584
MEAN_MOTION    = 15.80852869
ECCENTRICITY   = .00010156
INCLINATION    = 53.1572
RA_OF_ASC_NODE = 245.1961
ARG_OF_PERICENTER = 69.8548
MEAN_ANOMALY   = 54.2154

EPHEMERIS_TYPE = 0
CLASSIFICATION_TYPE = U
NORAD_CAT_ID   = 67862
ELEMENT_SET_NO = 999
REV_AT_EPOCH   = 277
BSTAR          = .30292389E-3
MEAN_MOTION_DOT = .59445E-3
MEAN_MOTION_DDOT = 0

CCSDS_OMM_VERS = 2.0
CREATION_DATE  = 
ORIGINATOR     = 

OBJECT_NAME    = STARLINK-36835
OBJECT_ID      = 2026-034P
CENTER_NAME    = EARTH
REF_FRAME      = TEME
TIME_SYSTEM    = UTC
MEAN_ELEMENT_THEORY = SGP/SGP4

EPOCH          = 2026-03-02T22:00:01.999584
MEAN_MOTION    = 15.80890697
ECCENTRICITY   = .00011189
INCLINATION    = 53.1573
RA_OF_ASC_NODE = 245.1862
ARG_OF_PERICENTER = 73.0964
MEAN_ANOMALY   = 55.2153

EPHEMERIS_TYPE = 0
CLASSIFICATION_TYPE = U
NORAD_CAT_ID   = 67863
ELEMENT_SET_NO = 999
REV_AT_EPOCH   = 277
BSTAR          = .28502585E-4
MEAN_MOTION_DOT = .4934E-4
MEAN_MOTION_DDOT = 0

CCSDS_OMM_VERS = 2.0
CREATION_DATE  = 
ORIGINATOR     = 

OBJECT_NAME    = STARLINK-36831
OBJECT_ID      = 2026-034Q
CENTER_NAME    = EARTH
REF_FRAME      = TEME
TIME_SYSTEM    = UTC
MEAN_ELEMENT_THEORY = SGP/SGP4

EPOCH          = 2026-03-02T22:00:01.999584
MEAN_MOTION    = 15.80917368
ECCENTRICITY   = .00009853
INCLINATION    = 53.1568
RA_OF_ASC_NODE = 245.1776
ARG_OF_PERICENTER = 55.4332
MEAN_ANOMALY   = 77.1665

EPHEMERIS_TYPE = 0
CLASSIFICATION_TYPE = U
NORAD_CAT_ID   = 67864
ELEMENT_SET_NO = 999
REV_AT_EPOCH   = 277
BSTAR          = -.46758257E-3
MEAN_MOTION_DOT = -.92193E-3
MEAN_MOTION_DDOT = 0

CCSDS_OMM_VERS = 2.0
CREATION_DATE  = 
ORIGINATOR     = 

OBJECT_NAME    = STARLINK-36738
OBJECT_ID      = 2026-034R
CENTER_NAME    = EARTH
REF_FRAME      = TEME
TIME_SYSTEM    = UTC
MEAN_ELEMENT_THEORY = SGP/SGP4

EPOCH          = 2026-03-02T22:00:01.999584
MEAN_MOTION    = 15.80942372
ECCENTRICITY   = .00014203
INCLINATION    = 53.1566
RA_OF_ASC_NODE = 245.1685
ARG_OF_PERICENTER = 50.6749
MEAN_ANOMALY   = 86.2129

EPHEMERIS_TYPE = 0
CLASSIFICATION_TYPE = U
NORAD_CAT_ID   = 67865
ELEMENT_SET_NO = 999
REV_AT_EPOCH   = 277
BSTAR          = -.94425598E-3
MEAN_MOTION_DOT = -.183756E-2
MEAN_MOTION_DDOT = 0

CCSDS_OMM_VERS = 2.0
CREATION_DATE  = 
ORIGINATOR     = 

OBJECT_NAME    = STARLINK-36780
OBJECT_ID      = 2026-034S
CENTER_NAME    = EARTH
REF_FRAME      = TEME
TIME_SYSTEM    = UTC
MEAN_ELEMENT_THEORY = SGP/SGP4

EPOCH          = 2026-03-02T22:00:01.999584
MEAN_MOTION    = 15.80826827
ECCENTRICITY   = .00010891
INCLINATION    = 53.1550
RA_OF_ASC_NODE = 245.1591
ARG_OF_PERICENTER = 77.5669
MEAN_ANOMALY   = 63.5886

EPHEMERIS_TYPE = 0
CLASSIFICATION_TYPE = U
NORAD_CAT_ID   = 67866
ELEMENT_SET_NO = 999
REV_AT_EPOCH   = 277
BSTAR          = .47165424E-3
MEAN_MOTION_DOT = .93201E-3
MEAN_MOTION_DDOT = 0

CCSDS_OMM_VERS = 2.0
CREATION_DATE  = 
ORIGINATOR     = 

OBJECT_NAME    = STARLINK-36761
OBJECT_ID      = 2026-034T
CENTER_NAME    = EARTH
REF_FRAME      = TEME
TIME_SYSTEM    = UTC
MEAN_ELEMENT_THEORY = SGP/SGP4

EPOCH          = 2026-03-02T22:00:01.999584
MEAN_MOTION    = 15.80875224
ECCENTRICITY   = .00012797
INCLINATION    = 53.1553
RA_OF_ASC_NODE = 245.1500
ARG_OF_PERICENTER = 61.0809
MEAN_ANOMALY   = 84.3410

EPHEMERIS_TYPE = 0
CLASSIFICATION_TYPE = U
NORAD_CAT_ID   = 67867
ELEMENT_SET_NO = 999
REV_AT_EPOCH   = 277
BSTAR          = -.52675894E-4
MEAN_MOTION_DOT = -.11084E-3
MEAN_MOTION_DDOT = 0

CCSDS_OMM_VERS = 2.0
CREATION_DATE  = 
ORIGINATOR     = 

OBJECT_NAME    = STARLINK-36762
OBJECT_ID      = 2026-034U
CENTER_NAME    = EARTH
REF_FRAME      = TEME
TIME_SYSTEM    = UTC
MEAN_ELEMENT_THEORY = SGP/SGP4

EPOCH          = 2026-03-02T22:00:01.999584
MEAN_MOTION    = 15.80817696
ECCENTRICITY   = .00015511
INCLINATION    = 53.1550
RA_OF_ASC_NODE = 245.1416
ARG_OF_PERICENTER = 62.5710
MEAN_ANOMALY   = 87.1245

EPHEMERIS_TYPE = 0
CLASSIFICATION_TYPE = U
NORAD_CAT_ID   = 67868
ELEMENT_SET_NO = 999
REV_AT_EPOCH   = 277
BSTAR          = .41667271E-3
MEAN_MOTION_DOT = .82115E-3
MEAN_MOTION_DDOT = 0

CCSDS_OMM_VERS = 2.0
CREATION_DATE  = 
ORIGINATOR     = 

OBJECT_NAME    = STARLINK-36779
OBJECT_ID      = 2026-034V
CENTER_NAME    = EARTH
REF_FRAME      = TEME
TIME_SYSTEM    = UTC
MEAN_ELEMENT_THEORY = SGP/SGP4

EPOCH          = 2026-03-02T22:00:01.999584
MEAN_MOTION    = 15.80868572
ECCENTRICITY   = .00014323
INCLINATION    = 53.1550
RA_OF_ASC_NODE = 245.1325
ARG_OF_PERICENTER = 77.2087
MEAN_ANOMALY   = 76.7513

EPHEMERIS_TYPE = 0
CLASSIFICATION_TYPE = U
NORAD_CAT_ID   = 67869
ELEMENT_SET_NO = 999
REV_AT_EPOCH   = 277
BSTAR          = .82804975E-4
MEAN_MOTION_DOT = .1567E-3
MEAN_MOTION_DDOT = 0

CCSDS_OMM_VERS = 2.0
CREATION_DATE  = 
ORIGINATOR     = 

OBJECT_NAME    = STARLINK-36770
OBJECT_ID      = 2026-034W
CENTER_NAME    = EARTH
REF_FRAME      = TEME
TIME_SYSTEM    = UTC
MEAN_ELEMENT_THEORY = SGP/SGP4

EPOCH          = 2026-03-02T22:00:01.999584
MEAN_MOTION    = 15.80875272
ECCENTRICITY   = .00012322
INCLINATION    = 53.1543
RA_OF_ASC_NODE = 245.1143
ARG_OF_PERICENTER = 60.9423
MEAN_ANOMALY   = 101.5502

EPHEMERIS_TYPE = 0
CLASSIFICATION_TYPE = U
NORAD_CAT_ID   = 67870
ELEMENT_SET_NO = 999
REV_AT_EPOCH   = 277
BSTAR          = .88326942E-4
MEAN_MOTION_DOT = .16769E-3
MEAN_MOTION_DDOT = 0

CCSDS_OMM_VERS = 2.0
CREATION_DATE  = 
ORIGINATOR     = 

OBJECT_NAME    = STARLINK-36769
OBJECT_ID      = 2026-034X
CENTER_NAME    = EARTH
REF_FRAME      = TEME
TIME_SYSTEM    = UTC
MEAN_ELEMENT_THEORY = SGP/SGP4

EPOCH          = 2026-03-02T22:00:01.999584
MEAN_MOTION    = 15.80830455
ECCENTRICITY   = .00008997
INCLINATION    = 53.1550
RA_OF_ASC_NODE = 245.1236
ARG_OF_PERICENTER = 78.8856
MEAN_ANOMALY   = 79.3567

EPHEMERIS_TYPE = 0
CLASSIFICATION_TYPE = U
NORAD_CAT_ID   = 67871
ELEMENT_SET_NO = 999
REV_AT_EPOCH   = 277
BSTAR          = .33309599E-3
MEAN_MOTION_DOT = .65413E-3
MEAN_MOTION_DDOT = 0

CCSDS_OMM_VERS = 2.0
CREATION_DATE  = 
ORIGINATOR     = 

OBJECT_NAME    = STARLINK-36786
OBJECT_ID      = 2026-034Y
CENTER_NAME    = EARTH
REF_FRAME      = TEME
TIME_SYSTEM    = UTC
MEAN_ELEMENT_THEORY = SGP/SGP4

EPOCH          = 2026-03-02T22:00:01.999584
MEAN_MOTION    = 15.80880326
ECCENTRICITY   = .00003308
INCLINATION    = 53.1550
RA_OF_ASC_NODE = 245.1060
ARG_OF_PERICENTER = 25.7961
MEAN_ANOMALY   = 140.9676

EPHEMERIS_TYPE = 0
CLASSIFICATION_TYPE = U
NORAD_CAT_ID   = 67872
ELEMENT_SET_NO = 999
REV_AT_EPOCH   = 277
BSTAR          = -.50748224E-4
MEAN_MOTION_DOT = -.10704E-3
MEAN_MOTION_DDOT = 0

CCSDS_OMM_VERS = 2.0
CREATION_DATE  = 
ORIGINATOR     = 

OBJECT_NAME    = STARLINK-36783
OBJECT_ID      = 2026-034Z
CENTER_NAME    = EARTH
REF_FRAME      = TEME
TIME_SYSTEM    = UTC
MEAN_ELEMENT_THEORY = SGP/SGP4

EPOCH          = 2026-03-02T22:00:01.999584
MEAN_MOTION    = 15.80831954
ECCENTRICITY   = .00008645
INCLINATION    = 53.1550
RA_OF_ASC_NODE = 245.0959
ARG_OF_PERICENTER = 62.3569
MEAN_ANOMALY   = 108.6966

EPHEMERIS_TYPE = 0
CLASSIFICATION_TYPE = U
NORAD_CAT_ID   = 67873
ELEMENT_SET_NO = 999
REV_AT_EPOCH   = 277
BSTAR          = .42536046E-3
MEAN_MOTION_DOT = .83913E-3
MEAN_MOTION_DDOT = 0

